[{"OBJECT_NAME":"STARLINK-5753","OBJECT_ID":"2023-020N","EPOCH":"2026-03-09T04:40:40.135008","MEAN_MOTION":15.02539554,"ECCENTRICITY":0.00012443,"INCLINATION":43.0065,"RA_OF_ASC_NODE":7.4343,"ARG_OF_PERICENTER":269.1232,"MEAN_ANOMALY":90.9468,"EPHEMERIS_TYPE":0,"CLASSIFICATION_TYPE":"U","NORAD_CAT_ID":55581,"ELEMENT_SET_NO":999,"REV_AT_EPOCH":16884,"BSTAR":-9.278982e-6,"MEAN_MOTION_DOT":-3.29e-6,"MEAN_MOTION_DDOT":0},{"OBJECT_NAME":"CZ-3C DEB","OBJECT_ID":"2010-057AC","EPOCH":"2026-03-09T19:16:51.029760","MEAN_MOTION":2.35019683,"ECCENTRICITY":0.70968422,"INCLINATION":20.3224,"RA_OF_ASC_NODE":341.1065,"ARG_OF_PERICENTER":23.7821,"MEAN_ANOMALY":85.167,"EPHEMERIS_TYPE":0,"CLASSIFICATION_TYPE":"U","NORAD_CAT_ID":40174,"ELEMENT_SET_NO":999,"REV_AT_EPOCH":9816,"BSTAR":0.0060908078,"MEAN_MOTION_DOT":4.2e-6,"MEAN_MOTION_DDOT":0}]
